{"type": "FeatureCollection", "features": [ {"type": "Feature", "properties": {"norad_id": 66989, "name": "CZ-4B R/B", "group": "last-30-days", "lat": 56.413323143546016, "lon": -103.49946600733813, "alt_km": 444.37143001938966, "timestamp": "2025-12-24T18:55:54.778554+00:00", "meta": {"OBJECT_NAME": "CZ-4B R/B", "OBJECT_ID": "2025-289B", "EPOCH": "2025-12-24T04:38:29.685696", "MEAN_MOTION": 15.69990743, "ECCENTRICITY": 0.01403574, "INCLINATION": 97.5233, "RA_OF_ASC_NODE": 64.3803, "ARG_OF_PERICENTER": 319.5361, "MEAN_ANOMALY": 39.5527, "EPHEMERIS_TYPE": 0, "CLASSIFICATION_TYPE": "U", "NORAD_CAT_ID": 66989, "ELEMENT_SET_NO": 999, "REV_AT_EPOCH": 236, "BSTAR": 0.00059877785, "MEAN_MOTION_DOT": 0.00128184, "MEAN_MOTION_DDOT": 7.033709e-06}, "tle": {"line1": "1 66989U 25289B   25358.19339914  .00128184  70337-5  59878-3 0  9995", "line2": "2 66989  97.5233  64.3803 0140357 319.5361  39.5527 15.69990743  2366"}}, "geometry": {"type": "Point", "coordinates": [-103.49946600733813, 56.413323143546016]}}, {"type": "Feature", "properties": {"norad_id": 66990, "name": "TJS-22", "group": "last-30-days", "lat": 0.7235982121580927, "lon": 83.99191884089606, "alt_km": 35800.51176006161, "timestamp": "2025-12-24T18:55:54.778567+00:00", "meta": {"OBJECT_NAME": "TJS-22", "OBJECT_ID": "2025-290A", "EPOCH": "2025-12-23T08:28:30.051840", "MEAN_MOTION": 1.00271239, "ECCENTRICITY": 0.00034178, "INCLINATION": 1.9617, "RA_OF_ASC_NODE": 285.0353, "ARG_OF_PERICENTER": 342.904, "MEAN_ANOMALY": 17.7811, "EPHEMERIS_TYPE": 0, "CLASSIFICATION_TYPE": "U", "NORAD_CAT_ID": 66990, "ELEMENT_SET_NO": 999, "REV_AT_EPOCH": 26, "BSTAR": 0, "MEAN_MOTION_DOT": 1.6e-07, "MEAN_MOTION_DDOT": 0}, "tle": {"line1": "1 66990U 25290A   25357.35312560  .00000016  00000+0  00000+0 0  9990", "line2": "2 66990   1.9617 285.0353 0003417 342.9040  17.7811  1.00271239   267"}}, "geometry": {"type": "Point", "coordinates": [83.99191884089606, 0.7235982121580927]}}, {"type": "Feature", "properties": {"norad_id": 66991, "name": "CZ-3B R/B", "group": "last-30-days", "lat": -17.064790212432754, "lon": -97.60919879812744, "alt_km": 16045.558564145631, "timestamp": "2025-12-24T18:55:54.778580+00:00", "meta": {"OBJECT_NAME": "CZ-3B R/B", "OBJECT_ID": "2025-290B", "EPOCH": "2025-12-15T17:23:33.043200", "MEAN_MOTION": 2.38388611, "ECCENTRICITY": 0.7240884, "INCLINATION": 28.4636, "RA_OF_ASC_NODE": 300.4666, "ARG_OF_PERICENTER": 182.7002, "MEAN_ANOMALY": 168.625, "EPHEMERIS_TYPE": 0, "CLASSIFICATION_TYPE": "U", "NORAD_CAT_ID": 66991, "ELEMENT_SET_NO": 999, "REV_AT_EPOCH": 16, "BSTAR": 0.00075879, "MEAN_MOTION_DOT": 0.00057911, "MEAN_MOTION_DDOT": -2.0514e-07}, "tle": {"line1": "1 66991U 25290B   25349.72468800  .00057911 -20514-6  75879-3 0  9998", "line2": "2 66991  28.4636 300.4666 7240884 182.7002 168.6250  2.38388611   165"}}, "geometry": {"type": "Point", "coordinates": [-97.60919879812744, -17.064790212432754]}}, {"type": "Feature", "properties": {"norad_id": 66993, "name": "2025-292A", "group": "last-30-days", "lat": 56.47474747903717, "lon": 59.51720831799561, "alt_km": 557.3348785737935, "timestamp": "2025-12-24T18:55:54.778591+00:00", "meta": {"OBJECT_NAME": "2025-292A", "OBJECT_ID": "2025-292A", "EPOCH": "2025-12-24T05:54:30.858336", "MEAN_MOTION": 15.04577781, "ECCENTRICITY": 0.00144786, "INCLINATION": 97.65, "RA_OF_ASC_NODE": 70.6852, "ARG_OF_PERICENTER": 230.6712, "MEAN_ANOMALY": 129.3232, "EPHEMERIS_TYPE": 0, "CLASSIFICATION_TYPE": "U", "NORAD_CAT_ID": 66993, "ELEMENT_SET_NO": 999, "REV_AT_EPOCH": 212, "BSTAR": 0.0003177332, "MEAN_MOTION_DOT": 4.406e-05, "MEAN_MOTION_DDOT": 0}, "tle": {"line1": "1 66993U 25292A   25358.24619049  .00004406  00000+0  31773-3 0  9998", "line2": "2 66993  97.6500  70.6852 0014478 230.6712 129.3232 15.04577781  2127"}}, "geometry": {"type": "Point", "coordinates": [59.51720831799561, 56.47474747903717]}}, {"type": "Feature", "properties": {"norad_id": 66994, "name": "2025-292B", "group": "last-30-days", "lat": 58.743602856498676, "lon": 58.42940656349284, "alt_km": 556.7043431604143, "timestamp": "2025-12-24T18:55:54.778601+00:00", "meta": {"OBJECT_NAME": "2025-292B", "OBJECT_ID": "2025-292B", "EPOCH": "2025-12-24T05:53:54.966048", "MEAN_MOTION": 15.04625525, "ECCENTRICITY": 0.00142571, "INCLINATION": 97.6509, "RA_OF_ASC_NODE": 70.6871, "ARG_OF_PERICENTER": 230.9883, "MEAN_ANOMALY": 129.0075, "EPHEMERIS_TYPE": 0, "CLASSIFICATION_TYPE": "U", "NORAD_CAT_ID": 66994, "ELEMENT_SET_NO": 999, "REV_AT_EPOCH": 212, "BSTAR": 0.00036226785, "MEAN_MOTION_DOT": 5.039e-05, "MEAN_MOTION_DDOT": 0}, "tle": {"line1": "1 66994U 25292B   25358.24577507  .00005039  00000+0  36227-3 0  9993", "line2": "2 66994  97.6509  70.6871 0014257 230.9883 129.0075 15.04625525  2127"}}, "geometry": {"type": "Point", "coordinates": [58.42940656349284, 58.743602856498676]}}, {"type": "Feature", "properties": {"norad_id": 66995, "name": "2025-292C", "group": "last-30-days", "lat": 59.64959876473789, "lon": 57.9530464853325, "alt_km": 556.6922621098447, "timestamp": "2025-12-24T18:55:54.778611+00:00", "meta": {"OBJECT_NAME": "2025-292C", "OBJECT_ID": "2025-292C", "EPOCH": "2025-12-24T05:53:40.904448", "MEAN_MOTION": 15.0465654, "ECCENTRICITY": 0.00145625, "INCLINATION": 97.65, "RA_OF_ASC_NODE": 70.6858, "ARG_OF_PERICENTER": 231.3832, "MEAN_ANOMALY": 128.6091, "EPHEMERIS_TYPE": 0, "CLASSIFICATION_TYPE": "U", "NORAD_CAT_ID": 66995, "ELEMENT_SET_NO": 999, "REV_AT_EPOCH": 212, "BSTAR": 0.00040379165, "MEAN_MOTION_DOT": 5.629e-05, "MEAN_MOTION_DDOT": 0}, "tle": {"line1": "1 66995U 25292C   25358.24561232  .00005629  00000+0  40379-3 0  9990", "line2": "2 66995  97.6500  70.6858 0014562 231.3832 128.6091 15.04656540  2126"}}, "geometry": {"type": "Point", "coordinates": [57.9530464853325, 59.64959876473789]}}, {"type": "Feature", "properties": {"norad_id": 66996, "name": "2025-292D", "group": "last-30-days", "lat": 61.526150780235284, "lon": 56.875935112138436, "alt_km": 555.8672773840281, "timestamp": "2025-12-24T18:55:54.778620+00:00", "meta": {"OBJECT_NAME": "2025-292D", "OBJECT_ID": "2025-292D", "EPOCH": "2025-12-24T05:53:10.375008", "MEAN_MOTION": 15.04670926, "ECCENTRICITY": 0.00136875, "INCLINATION": 97.6495, "RA_OF_ASC_NODE": 70.6854, "ARG_OF_PERICENTER": 233.9135, "MEAN_ANOMALY": 126.0824, "EPHEMERIS_TYPE": 0, "CLASSIFICATION_TYPE": "U", "NORAD_CAT_ID": 66996, "ELEMENT_SET_NO": 999, "REV_AT_EPOCH": 212, "BSTAR": 0.00028189027, "MEAN_MOTION_DOT": 3.911e-05, "MEAN_MOTION_DDOT": 0}, "tle": {"line1": "1 66996U 25292D   25358.24525897  .00003911  00000+0  28189-3 0  9995", "line2": "2 66996  97.6495  70.6854 0013687 233.9135 126.0824 15.04670926  2127"}}, "geometry": {"type": "Point", "coordinates": [56.875935112138436, 61.526150780235284]}}, {"type": "Feature", "properties": {"norad_id": 66997, "name": "2025-292E", "group": "last-30-days", "lat": 65.69447233277289, "lon": 53.91160756077737, "alt_km": 555.3107947178769, "timestamp": "2025-12-24T18:55:54.778632+00:00", "meta": {"OBJECT_NAME": "2025-292E", "OBJECT_ID": "2025-292E", "EPOCH": "2025-12-24T07:27:48.683232", "MEAN_MOTION": 15.04761215, "ECCENTRICITY": 0.00140804, "INCLINATION": 97.6515, "RA_OF_ASC_NODE": 70.7558, "ARG_OF_PERICENTER": 234.6788, "MEAN_ANOMALY": 125.3123, "EPHEMERIS_TYPE": 0, "CLASSIFICATION_TYPE": "U", "NORAD_CAT_ID": 66997, "ELEMENT_SET_NO": 999, "REV_AT_EPOCH": 212, "BSTAR": 0.00031272154, "MEAN_MOTION_DOT": 4.356e-05, "MEAN_MOTION_DDOT": 0}, "tle": {"line1": "1 66997U 25292E   25358.31098013  .00004356  00000+0  31272-3 0  9990", "line2": "2 66997  97.6515  70.7558 0014080 234.6788 125.3123 15.04761215  2129"}}, "geometry": {"type": "Point", "coordinates": [53.91160756077737, 65.69447233277289]}}, {"type": "Feature", "properties": {"norad_id": 66998, "name": "2025-292F", "group": "last-30-days", "lat": 73.56077880151177, "lon": 44.123571135780864, "alt_km": 554.4406292638141, "timestamp": "2025-12-24T18:55:54.778644+00:00", "meta": {"OBJECT_NAME": "2025-292F", "OBJECT_ID": "2025-292F", "EPOCH": "2025-12-24T05:49:52.188096", "MEAN_MOTION": 15.04940102, "ECCENTRICITY": 0.00151994, "INCLINATION": 97.6534, "RA_OF_ASC_NODE": 70.695, "ARG_OF_PERICENTER": 235.832, "MEAN_ANOMALY": 124.1465, "EPHEMERIS_TYPE": 0, "CLASSIFICATION_TYPE": "U", "NORAD_CAT_ID": 66998, "ELEMENT_SET_NO": 999, "REV_AT_EPOCH": 212, "BSTAR": 0.0004217925, "MEAN_MOTION_DOT": 5.929e-05, "MEAN_MOTION_DDOT": 0}, "tle": {"line1": "1 66998U 25292F   25358.24296514  .00005929  00000+0  42179-3 0  9994", "line2": "2 66998  97.6534  70.6950 0015199 235.8320 124.1465 15.04940102  2123"}}, "geometry": {"type": "Point", "coordinates": [44.123571135780864, 73.56077880151177]}}, {"type": "Feature", "properties": {"norad_id": 66999, "name": "2025-292G", "group": "last-30-days", "lat": 76.42022214765859, "lon": 37.40710852039712, "alt_km": 553.6610323349651, "timestamp": "2025-12-24T18:55:54.778654+00:00", "meta": {"OBJECT_NAME": "2025-292G", "OBJECT_ID": "2025-292G", "EPOCH": "2025-12-24T05:49:00.951168", "MEAN_MOTION": 15.05004127, "ECCENTRICITY": 0.00147116, "INCLINATION": 97.6543, "RA_OF_ASC_NODE": 70.6973, "ARG_OF_PERICENTER": 237.8036, "MEAN_ANOMALY": 122.1764, "EPHEMERIS_TYPE": 0, "CLASSIFICATION_TYPE": "U", "NORAD_CAT_ID": 66999, "ELEMENT_SET_NO": 999, "REV_AT_EPOCH": 212, "BSTAR": 0.00042633254, "MEAN_MOTION_DOT": 6.003e-05, "MEAN_MOTION_DDOT": 0}, "tle": {"line1": "1 66999U 25292G   25358.24237212  .00006003  00000+0  42633-3 0  9994", "line2": "2 66999  97.6543  70.6973 0014711 237.8036 122.1764 15.05004127  2123"}}, "geometry": {"type": "Point", "coordinates": [37.40710852039712, 76.42022214765859]}}]}